*******************************************************************************
JPL/HORIZONS                     (2024 RN45)               2025-Sep-17 16:42:00
Rec #:50590247 (+COV) Soln.date: 2024-Dec-10_08:58:17     # obs: 50 (2013-2024)
 
IAU76/J2000 helio. ecliptic osc. elements (au, days, deg., period=Julian yrs):
 
  EPOCH=  2459488.5 ! 2021-Oct-01.00 (TDB)         Residual RMS= .17877
   EC= .09125347361352214  QR= 2.474502759134905   TP= 2459032.61609123
   OM= 323.861162136219    W=  64.17517231148952   IN= 10.49353169626334
   A= 2.722984558713495    MA= 99.99782852488494   ADIST= 2.971466358292085
   PER= 4.49341            N= .219349327           ANGMOM= .028267554
   DAN= 2.59707            DDN= 2.8121             L= 27.6554357
   B= 9.4354163            MOID= 1.49722004        TP= 2020-Jul-02.1160912300
 
Asteroid physical parameters (km, seconds, rotational period in hours):
   GM= n.a.                RAD= n.a.               ROTPER= n.a.
   H= 17.84                G= .150                 B-V= n.a.
                           ALBEDO= n.a.            STYP= n.a.

ASTEROID comments: 
1: soln ref.= JPL#3, OCC=1
2: source=ORB
*******************************************************************************


*******************************************************************************
Ephemeris / WWW_USER Wed Sep 17 16:42:00 2025 Pasadena, USA      / Horizons    
*******************************************************************************
Target body name: (2024 RN45)                     {source: JPL#3}
Center body name: Earth (399)                     {source: DE441}
Center-site name: Cerro Tololo Observatory, La Serena
*******************************************************************************
Start time      : A.D. 2024-Sep-05 00:00:00.0000 UT      
Stop  time      : A.D. 2024-Sep-09 23:00:00.0000 UT      
Step-size       : 45 minutes
*******************************************************************************
Target pole/equ : undefined
Target radii    : undefined                                                    
Center geodetic : 289.1941, -30.1691165, 2.38888  {E-lon(deg),Lat(deg),Alt(km)}
Center cylindric: 289.1941,5520.92438,-3187.79599 {E-lon(deg),Dxy(km),Dz(km)}
Center pole/equ : ITRF93                          {East-longitude positive}
Center radii    : 6378.137, 6378.137, 6356.752 km {Equator_a, b, pole_c}       
Target primary  : Sun
Vis. interferer : MOON (R_eq= 1737.400) km        {source: DE441}
Rel. light bend : Sun                             {source: DE441}
Rel. lght bnd GM: 1.3271E+11 km^3/s^2                                          
Small-body perts: Yes                             {source: SB441-N16}
Atmos refraction: NO (AIRLESS)
RA format       : DEG
Time format     : JD  
Calendar mode   : Mixed Julian/Gregorian
EOP file        : eop.250917.p251213                                           
EOP coverage    : DATA-BASED 1962-JAN-20 TO 2025-SEP-17. PREDICTS-> 2025-DEC-12
Units conversion: 1 au= 149597870.700 km, c= 299792.458 km/s, 1 day= 86400.0 s 
Table cut-offs 1: Elevation (-90.0deg=NO ),Airmass (>38.000=NO), Daylight (NO )
Table cut-offs 2: Solar elongation (  0.0,180.0=NO ),Local Hour Angle( 0.0=NO )
Table cut-offs 3: RA/DEC angular rate (     0.0=NO )                           
Table format    : Comma Separated Values (spreadsheet)
*******************************************************************************
Initial IAU76/J2000 heliocentric ecliptic osculating elements (au, days, deg.):
  EPOCH=  2459488.5 ! 2021-Oct-01.00 (TDB)         Residual RMS= .17877        
   EC= .09125347361352214  QR= 2.474502759134905   TP= 2459032.61609123        
   OM= 323.861162136219    W=  64.17517231148952   IN= 10.49353169626334       
  Equivalent ICRF heliocentric cartesian coordinates (au, au/d):
   X=-2.076900123753354E+00  Y= 1.684793087747311E+00  Z= 7.861785659054263E-01
  VX=-7.344077139396967E-03 VY=-5.524654570524468E-03 VZ=-4.380059131811686E-03
Asteroid physical parameters (km, seconds, rotational period in hours):        
   GM= n.a.                RAD= n.a.               ROTPER= n.a.                
   H= 17.84                G= .150                 B-V= n.a.                   
                           ALBEDO= n.a.            STYP= n.a.                  
***********************************************************************************
Date_________JDUT, , , R.A.___(ICRF), DEC____(ICRF),             delta,     deldot,
***********************************************************************************
$$SOE
2460562.500000000, ,m,   1.701508597,  11.387269000,  1.53628251380458, -7.7917963,
2460562.531250000, ,m,   1.694852386,  11.387523227,  1.53614212042342, -7.7632506,
2460562.562500000, ,m,   1.688140637,  11.387771456,  1.53600237537211, -7.7200987,
2460562.593750000, ,m,   1.681377457,  11.388011756,  1.53586353265681, -7.6634967,
2460562.625000000, ,m,   1.674568804,  11.388242388,  1.53572582064082, -7.5951208,
2460562.656250000, ,m,   1.667722262,  11.388461876,  1.53558943321191, -7.5171028,
2460562.687500000, , ,   1.660846741,  11.388669064,  1.53545452228314, -7.4319473,
2460562.718750000, , ,   1.653952140,  11.388863157,  1.53532119191753, -7.3424350,
2460562.750000000, , ,   1.647048960,  11.389043757,  1.53518949430414, -7.2515150,
2460562.781250000, , ,   1.640147899,  11.389210875,  1.53505942774132, -7.1621906,
2460562.812500000, , ,   1.633259438,  11.389364933,  1.53493093670527, -7.0774034,
2460562.843750000, , ,   1.626393437,  11.389506745,  1.53480391400128, -6.9999192,
2460562.875000000, , ,   1.619558752,  11.389637489,  1.53467820491420, -6.9322211,
2460562.906250000,A, ,   1.612762894,  11.389758659,  1.53455361319770, -6.8764134,
2460562.937500000,C, ,   1.606011736,  11.389872007,  1.53442990867013, -6.8341400,
2460562.968750000,*, ,   1.599309290,  11.389979477,  1.53430683612312, -6.8065214,
2460563.000000000,*, ,   1.592657546,  11.390083130,  1.53418412519797, -6.7941105,
2460563.031250000,*, ,   1.586056402,  11.390185063,  1.53406150084771, -6.7968723,
2460563.062500000,*, ,   1.579503660,  11.390287328,  1.53393869397988, -6.8141841,
2460563.093750000,*,m,   1.572995119,  11.390391852,  1.53381545186853, -6.8448607,
2460563.125000000,*,m,   1.566524733,  11.390500364,  1.53369154793252, -6.8871997,
2460563.156250000,*,m,   1.560084844,  11.390614330,  1.53356679050219, -6.9390472,
2460563.187500000,*,m,   1.553666483,  11.390734889,  1.53344103023532, -6.9978818,
2460563.218750000,*,m,   1.547259712,  11.390862819,  1.53331416589586, -7.0609113,
2460563.250000000,*,m,   1.540854012,  11.390998498,  1.53318614827193, -7.1251816,
2460563.281250000,*,m,   1.534438687,  11.391141895,  1.53305698208186, -7.1876900,
2460563.312500000,*,m,   1.528003283,  11.391292567,  1.53292672579433, -7.2455020,
2460563.343750000,*,m,   1.521537986,  11.391449680,  1.53279548936992, -7.2958646,
2460563.375000000,*,m,   1.515034007,  11.391612041,  1.53266343001096, -7.3363128,
2460563.406250000,*,m,   1.508483921,  11.391778138,  1.53253074608426, -7.3647647,
2460563.437500000,*,m,   1.501881954,  11.391946207,  1.53239766945139, -7.3796025,
